INTELSAT 23 (IS-23)     
1 38867U 12057A   26197.82972950 -.00000295  00000+0  00000+0 0  9999
2 38867   0.0191 314.3762 0000709 300.0919 285.8764  1.00263219 50255
FM-6                    
1 39360U 13058A   26197.39350294 -.00000026  00000+0  00000+0 0  9995
2 39360   0.0150  42.5489 0001588 139.8142 137.1641  1.00271034 46361
INTELSAT 30 (IS-30)     
1 40271U 14062A   26197.56572662 -.00000163  00000+0  00000+0 0  9990
2 40271   0.0203  53.9469 0001293 348.4418   0.6250  1.00282075  7087
DIRECTV 14              
1 40333U 14078B   26197.60651666 -.00000136  00000+0  00000+0 0  9993
2 40333   0.0101  43.9278 0000480 317.0813  52.5317  1.00271916 42337
DIRECTV 15              
1 40663U 15026A   26197.60599666 -.00000113  00000+0  00000+0 0  9999
2 40663   0.0230  76.6558 0000264 264.8032  68.2365  1.00268719 40750
SKY MEXICO-1            
1 40664U 15026B   26197.82457248 -.00000245  00000+0  00000+0 0  9999
2 40664   0.0129  61.0331 0002296  72.1021  19.5537  1.00273057 40751
INTELSAT 34 (IS-34)     
1 40874U 15039A   26197.82920949 -.00000296  00000+0  00000+0 0  9995
2 40874   0.0105  25.3018 0000392 349.5333 162.8302  1.00269329 39932
INTELSAT 31 (IS-31)     
1 41581U 16035A   26197.82127912 -.00000161  00000+0  00000+0 0  9998
2 41581   0.0172 233.0255 0001092  63.8050 198.4177  1.00270146 36989
INTELSAT 36 (IS-36)     
1 41747U 16053A   26197.35467045 -.00000035  00000+0  00000+0 0  9994
2 41747   0.0127  38.7567 0002351 300.8444 150.7380  1.00270623 36256
INTELSAT 32E (IS-32E)   
1 41945U 17007B   26197.78794999  .00000000  00000+0  00000+0 0  9993
2 41945   0.0225  58.7860 0000433 299.9397 176.3763  1.00269913 34524
INTELSAT 35E (IS-35E)   
1 42818U 17041A   26197.85114068 -.00000248  00000+0  00000+0 0  9997
2 42818   0.0186  45.6193 0001858  72.1335  88.8239  1.00272989 33115
INTELSAT 37E (IS-37E)   
1 42950U 17059A   26197.84003088 -.00000151  00000+0  00000+0 0  9994
2 42950   0.0152  63.4270 0002580  56.6447  98.9870  1.00272758 32366
AZERSPACE 2 (IS-38)     
1 43632U 18074A   26197.81572586  .00000000  00000+0  00000+0 0  9993
2 43632   0.0216  55.7578 0001389  62.1963 155.4737  1.00270127 28747
HORIZONS-3E             
1 43633U 18074B   26197.80238571 -.00000041  00000+0  00000+0 0  9992
2 43633   0.0390 232.5374 0000748  54.4484 105.4892  1.00272425 28638
AT&T T-16               
1 44333U 19034A   26197.41017067 -.00000126  00000+0  00000+0 0  9993
2 44333   0.0161  73.6901 0000565 259.4193   7.9269  1.00272155 25926
INTELSAT 39 (IS-39)     
1 44476U 19049B   26197.85247833  .00000000  00000+0  00000+0 0  9991
2 44476   0.0220  59.4088 0000561 281.9492 322.1688  1.00270978 25429
GALAXY 30 (G-30)        
1 46114U 20056C   26197.74413846  .00000000  00000+0  00000+0 0  9999
2 46114   0.0213  57.4672 0002193  59.3250 320.6798  1.00270671 21589
GALAXY 33 (G-33)        
1 54026U 22128A   26197.74257846  .00000069  00000+0  00000+0 0  9993
2 54026   0.0135  57.3083 0001838  56.8760 314.7057  1.00270123 14037
GALAXY 34 (G-34)        
1 54027U 22128B   26197.87864095  .00000049  00000+0  00000+0 0  9996
2 54027   0.0108  52.9253 0001394  78.9388 350.1440  1.00271525 14213
GALAXY 31 (G-31)        
1 54243U 22153A   26197.60235662  .00000003  00000+0  00000+0 0  9997
2 54243   0.0153  90.3322 0001035  29.2843 270.6424  1.00271599  7427
GALAXY 32 (G-32)        
1 54244U 22153B   26197.53703721 -.00000185  00000+0  00000+0 0  9998
2 54244   0.0103  55.2860 0001346 349.2681 352.1401  1.00272432 13436
GALAXY 35 (G-35)        
1 54741U 22170A   26197.82179912 -.00000173  00000+0  00000+0 0  9997
2 54741   0.0152  77.2620 0001819  38.8043  21.3120  1.00272253 13195
GALAXY 36 (G-36)        
1 54742U 22170B   26197.82249248 -.00000196  00000+0  00000+0 0  9993
2 54742   0.0157  95.4101 0002552   3.1568  43.1742  1.00271796 13079
GALAXY 37 (G-37)        
1 57493U 23112A   26197.17344941  .00000000  00000+0  00000+0 0  9993
2 57493   0.0184  49.9091 0001823  68.6969 110.8601  1.00271297 10831
